<?xml version="1.0" encoding="UTF-8"?>
<ndm xmlns:xsi="http://www.w3.org/2001/XMLSchema-instance"
    xsi:noNamespaceSchemaLocation="https://sanaregistry.org/r/ndmxml_unqualified/ndmxml-2.0.0-master-2.0.xsd">
    <omm id="CCSDS_OMM_VERS" version="2.0">
        <header>
            <CREATION_DATE />
            <ORIGINATOR />
        </header>
        <body>
            <segment>
                <metadata>
                    <OBJECT_NAME>BEIDOU-3 M14 (C33)</OBJECT_NAME>
                    <OBJECT_ID>2018-072B</OBJECT_ID>
                    <CENTER_NAME>EARTH</CENTER_NAME>
                    <REF_FRAME>TEME</REF_FRAME>
                    <TIME_SYSTEM>UTC</TIME_SYSTEM>
                    <MEAN_ELEMENT_THEORY>SGP4</MEAN_ELEMENT_THEORY>
                </metadata>
                <data>
                    <meanElements>
                        <EPOCH>2024-08-13T01:27:30.153024</EPOCH>
                        <MEAN_MOTION>1.86231606</MEAN_MOTION>
                        <ECCENTRICITY>.0003955</ECCENTRICITY>
                        <INCLINATION>56.0392</INCLINATION>
                        <RA_OF_ASC_NODE>84.9756</RA_OF_ASC_NODE>
                        <ARG_OF_PERICENTER>357.7422</ARG_OF_PERICENTER>
                        <MEAN_ANOMALY>2.3352</MEAN_ANOMALY>
                    </meanElements>
                    <tleParameters>
                        <EPHEMERIS_TYPE>0</EPHEMERIS_TYPE>
                        <CLASSIFICATION_TYPE>U</CLASSIFICATION_TYPE>
                        <NORAD_CAT_ID>43623</NORAD_CAT_ID>
                        <ELEMENT_SET_NO>999</ELEMENT_SET_NO>
                        <REV_AT_EPOCH>4011</REV_AT_EPOCH>
                        <BSTAR>0</BSTAR>
                        <MEAN_MOTION_DOT>-.24E-6</MEAN_MOTION_DOT>
                        <MEAN_MOTION_DDOT>0</MEAN_MOTION_DDOT>
                    </tleParameters>
                </data>
            </segment>
        </body>
    </omm>
    <omm id="CCSDS_OMM_VERS" version="2.0">
        <header>
            <CREATION_DATE />
            <ORIGINATOR />
        </header>
        <body>
            <segment>
                <metadata>
                    <OBJECT_NAME>BEIDOU-3 M16 (C35)</OBJECT_NAME>
                    <OBJECT_ID>2018-078A</OBJECT_ID>
                    <CENTER_NAME>EARTH</CENTER_NAME>
                    <REF_FRAME>TEME</REF_FRAME>
                    <TIME_SYSTEM>UTC</TIME_SYSTEM>
                    <MEAN_ELEMENT_THEORY>SGP4</MEAN_ELEMENT_THEORY>
                </metadata>
                <data>
                    <meanElements>
                        <EPOCH>2024-08-12T03:34:51.604032</EPOCH>
                        <MEAN_MOTION>1.86232277</MEAN_MOTION>
                        <ECCENTRICITY>.0006023</ECCENTRICITY>
                        <INCLINATION>54.6718</INCLINATION>
                        <RA_OF_ASC_NODE>323.4970</RA_OF_ASC_NODE>
                        <ARG_OF_PERICENTER>19.9038</ARG_OF_PERICENTER>
                        <MEAN_ANOMALY>340.1582</MEAN_ANOMALY>
                    </meanElements>
                    <tleParameters>
                        <EPHEMERIS_TYPE>0</EPHEMERIS_TYPE>
                        <CLASSIFICATION_TYPE>U</CLASSIFICATION_TYPE>
                        <NORAD_CAT_ID>43647</NORAD_CAT_ID>
                        <ELEMENT_SET_NO>999</ELEMENT_SET_NO>
                        <REV_AT_EPOCH>3960</REV_AT_EPOCH>
                        <BSTAR>0</BSTAR>
                        <MEAN_MOTION_DOT>-.86E-6</MEAN_MOTION_DOT>
                        <MEAN_MOTION_DDOT>0</MEAN_MOTION_DDOT>
                    </tleParameters>
                </data>
            </segment>
        </body>
    </omm>
    <omm id="CCSDS_OMM_VERS" version="2.0">
        <header>
            <CREATION_DATE />
            <ORIGINATOR />
        </header>
        <body>
            <segment>
                <metadata>
                    <OBJECT_NAME>BEIDOU-3 M15 (C34)</OBJECT_NAME>
                    <OBJECT_ID>2018-078B</OBJECT_ID>
                    <CENTER_NAME>EARTH</CENTER_NAME>
                    <REF_FRAME>TEME</REF_FRAME>
                    <TIME_SYSTEM>UTC</TIME_SYSTEM>
                    <MEAN_ELEMENT_THEORY>SGP4</MEAN_ELEMENT_THEORY>
                </metadata>
                <data>
                    <meanElements>
                        <EPOCH>2024-08-11T17:47:37.222656</EPOCH>
                        <MEAN_MOTION>1.86232408</MEAN_MOTION>
                        <ECCENTRICITY>.0002867</ECCENTRICITY>
                        <INCLINATION>54.6679</INCLINATION>
                        <RA_OF_ASC_NODE>323.5138</RA_OF_ASC_NODE>
                        <ARG_OF_PERICENTER>35.3693</ARG_OF_PERICENTER>
                        <MEAN_ANOMALY>324.6882</MEAN_ANOMALY>
                    </meanElements>
                    <tleParameters>
                        <EPHEMERIS_TYPE>0</EPHEMERIS_TYPE>
                        <CLASSIFICATION_TYPE>U</CLASSIFICATION_TYPE>
                        <NORAD_CAT_ID>43648</NORAD_CAT_ID>
                        <ELEMENT_SET_NO>999</ELEMENT_SET_NO>
                        <REV_AT_EPOCH>3961</REV_AT_EPOCH>
                        <BSTAR>0</BSTAR>
                        <MEAN_MOTION_DOT>-.88E-6</MEAN_MOTION_DOT>
                        <MEAN_MOTION_DDOT>0</MEAN_MOTION_DDOT>
                    </tleParameters>
                </data>
            </segment>
        </body>
    </omm>
    <omm id="CCSDS_OMM_VERS" version="2.0">
        <header>
            <CREATION_DATE />
            <ORIGINATOR />
        </header>
        <body>
            <segment>
                <metadata>
                    <OBJECT_NAME>BEIDOU-3 G1 (C59)</OBJECT_NAME>
                    <OBJECT_ID>2018-085A</OBJECT_ID>
                    <CENTER_NAME>EARTH</CENTER_NAME>
                    <REF_FRAME>TEME</REF_FRAME>
                    <TIME_SYSTEM>UTC</TIME_SYSTEM>
                    <MEAN_ELEMENT_THEORY>SGP4</MEAN_ELEMENT_THEORY>
                </metadata>
                <data>
                    <meanElements>
                        <EPOCH>2024-08-13T05:04:43.298400</EPOCH>
                        <MEAN_MOTION>1.00274048</MEAN_MOTION>
                        <ECCENTRICITY>.0003126</ECCENTRICITY>
                        <INCLINATION>2.3271</INCLINATION>
                        <RA_OF_ASC_NODE>107.4852</RA_OF_ASC_NODE>
                        <ARG_OF_PERICENTER>8.9052</ARG_OF_PERICENTER>
                        <MEAN_ANOMALY>61.9924</MEAN_ANOMALY>
                    </meanElements>
                    <tleParameters>
                        <EPHEMERIS_TYPE>0</EPHEMERIS_TYPE>
                        <CLASSIFICATION_TYPE>U</CLASSIFICATION_TYPE>
                        <NORAD_CAT_ID>43683</NORAD_CAT_ID>
                        <ELEMENT_SET_NO>999</ELEMENT_SET_NO>
                        <REV_AT_EPOCH>2130</REV_AT_EPOCH>
                        <BSTAR>0</BSTAR>
                        <MEAN_MOTION_DOT>-.268E-5</MEAN_MOTION_DOT>
                        <MEAN_MOTION_DDOT>0</MEAN_MOTION_DDOT>
                    </tleParameters>
                </data>
            </segment>
        </body>
    </omm>
    <omm id="CCSDS_OMM_VERS" version="2.0">
        <header>
            <CREATION_DATE />
            <ORIGINATOR />
        </header>
        <body>
            <segment>
                <metadata>
                    <OBJECT_NAME>COSMOS 2529 (757)</OBJECT_NAME>
                    <OBJECT_ID>2018-086A</OBJECT_ID>
                    <CENTER_NAME>EARTH</CENTER_NAME>
                    <REF_FRAME>TEME</REF_FRAME>
                    <TIME_SYSTEM>UTC</TIME_SYSTEM>
                    <MEAN_ELEMENT_THEORY>SGP4</MEAN_ELEMENT_THEORY>
                </metadata>
                <data>
                    <meanElements>
                        <EPOCH>2024-08-12T07:48:07.217856</EPOCH>
                        <MEAN_MOTION>2.13102106</MEAN_MOTION>
                        <ECCENTRICITY>.0011722</ECCENTRICITY>
                        <INCLINATION>64.2996</INCLINATION>
                        <RA_OF_ASC_NODE>215.3745</RA_OF_ASC_NODE>
                        <ARG_OF_PERICENTER>259.6942</ARG_OF_PERICENTER>
                        <MEAN_ANOMALY>100.1875</MEAN_ANOMALY>
                    </meanElements>
                    <tleParameters>
                        <EPHEMERIS_TYPE>0</EPHEMERIS_TYPE>
                        <CLASSIFICATION_TYPE>U</CLASSIFICATION_TYPE>
                        <NORAD_CAT_ID>43687</NORAD_CAT_ID>
                        <ELEMENT_SET_NO>999</ELEMENT_SET_NO>
                        <REV_AT_EPOCH>4492</REV_AT_EPOCH>
                        <BSTAR>0</BSTAR>
                        <MEAN_MOTION_DOT>.102E-5</MEAN_MOTION_DOT>
                        <MEAN_MOTION_DDOT>0</MEAN_MOTION_DDOT>
                    </tleParameters>
                </data>
            </segment>
        </body>
    </omm>
    
</ndm>