BEIDOU-3 M14 (C33)      
1 43623U 18072B   24226.06076566 -.00000024  00000+0  00000+0 0  9993
2 43623  56.0392  84.9756 0003955 357.7422   2.3352  1.86231606 40110
BEIDOU-3 M16 (C35)      
1 43647U 18078A   24225.14920838 -.00000086  00000+0  00000+0 0  9991
2 43647  54.6718 323.4970 0006023  19.9038 340.1582  1.86232277 39605
BEIDOU-3 M15 (C34)      
1 43648U 18078B   24224.74140304 -.00000088  00000+0  00000+0 0  9991
2 43648  54.6679 323.5138 0002867  35.3693 324.6882  1.86232408 39617
BEIDOU-3 G1 (C59)       
1 43683U 18085A   24226.21161225 -.00000268  00000+0  00000+0 0  9997
2 43683   2.3271 107.4852 0003126   8.9052  61.9924  1.00274048 21307
COSMOS 2529 (757)       
1 43687U 18086A   24225.32508354  .00000102  00000+0  00000+0 0  9997
2 43687  64.2996 215.3745 0011722 259.6942 100.1875  2.13102106 44920
